OBJECT_NAME,OBJECT_ID,EPOCH,MEAN_MOTION,ECCENTRICITY,INCLINATION,RA_OF_ASC_NODE,ARG_OF_PERICENTER,MEAN_ANOMALY,EPHEMERIS_TYPE,CLASSIFICATION_TYPE,NORAD_CAT_ID,ELEMENT_SET_NO,REV_AT_EPOCH,BSTAR,MEAN_MOTION_DOT,MEAN_MOTION_DDOT
ASTRA 2G,2014-089A,2026-07-13T20:42:38.746080,1.00267560,.0004503,0.0503,23.5210,50.0725,197.0165,0,U,40364,999,4223,0,.144E-5,0
FENGYUN 2G,2014-090A,2026-07-13T21:27:25.387776,1.00260524,.0004207,5.7041,72.4904,153.4534,126.9012,0,U,40367,999,4226,0,-.308E-5,0
MUOS-3,2015-002A,2026-07-13T20:14:00.499776,1.00269800,.0053437,4.5707,43.6233,177.3561,358.6900,0,U,40374,999,4185,0,-.137E-5,0
INMARSAT 5-F2,2015-005A,2026-07-13T20:02:48.680160,1.00275418,.0000046,0.0169,25.1294,275.2205,237.0580,0,U,40384,999,4126,0,-.291E-5,0
ABS-3A,2015-010A,2026-07-13T20:18:38.598912,1.00271149,.000161,0.0098,34.4699,45.9611,152.9696,0,U,40424,999,4164,0,-.32E-6,0
EUTELSAT 115 WEST B,2015-010B,2026-07-13T16:20:24.968256,1.00265888,.000042,0.0036,167.7754,252.9245,1.0490,0,U,40425,999,4164,0,-.29E-6,0
EXPRESS-AM7,2015-012A,2026-07-13T20:42:38.746080,1.00269571,.0002689,0.0034,113.8249,6.7800,161.7717,0,U,40505,999,4127,0,.145E-5,0
BEIDOU-3S IGSO-1S,2015-019A,2026-07-02T19:12:21.705408,1.00680073,.00768606,49.1798,295.2769,219.1125,144.2493,0,U,40549,999,4123,0,-.19E-5,0
THOR 7,2015-022A,2026-07-13T20:18:15.092928,1.00271405,.0002296,0.0163,104.1088,11.0174,120.4876,0,U,40613,999,4108,0,-.14E-6,0
TURKMENALEM52E/MONACOSAT,2015-023A,2026-07-13T20:33:16.606080,1.00270552,.0002582,0.0278,81.9912,39.3384,170.7170,0,U,40617,999,4111,0,.99E-6,0
DIRECTV 15,2015-026A,2026-07-13T12:21:38.618784,1.00272384,.00000657,0.0179,71.5022,256.9146,45.5133,0,U,40663,999,4072,0,-.106E-5,0
SKY MEXICO-1,2015-026B,2026-07-13T19:55:56.839008,1.00270379,.000233,0.0178,27.4608,108.1267,16.2974,0,U,40664,999,4072,0,-.239E-5,0
METEOSAT-11 (MSG-4),2015-034A,2026-07-13T20:21:07.318368,1.00271440,.0002212,3.2659,70.9419,353.7964,181.5085,0,U,40732,999,748,0,.54E-6,0
STAR ONE C4,2015-034B,2026-07-13T13:07:40.277280,1.00269962,.0001182,0.0373,314.5773,139.4865,324.2696,0,U,40733,999,4027,0,-.269E-5,0
WGS F7 (USA 263),2015-036A,2026-07-13T19:25:44.732928,1.00270634,.0000033,0.0120,31.3926,136.2275,230.5001,0,U,40746,999,4013,0,.12E-6,0
INTELSAT 34 (IS-34),2015-039A,2026-07-13T20:02:41.191008,1.00271912,.0000557,0.0105,343.6304,10.2654,182.9958,0,U,40874,999,3990,0,-.291E-5,0
EUTELSAT 8 WEST B,2015-039B,2026-07-13T20:16:15.283776,1.00271744,.0003818,0.0647,345.7180,121.4061,120.6547,0,U,40875,999,3992,0,-.71E-6,0
GSAT-6,2015-041A,2026-07-13T20:42:00.768096,1.00273409,.0003037,1.9859,82.2629,26.8349,215.6268,0,U,40880,999,3986,0,-.167E-5,0
INMARSAT 5-F3,2015-042A,2026-07-13T19:26:59.614080,1.00270841,.0000395,0.0180,34.1222,158.1271,210.7634,0,U,40882,999,3983,0,.45E-6,0
MUOS-4,2015-044A,2026-07-13T20:56:13.811712,1.00271145,.0056515,4.3785,42.3841,3.3957,275.0032,0,U,40887,999,3982,0,-.1E-5,0
TJS-1,2015-046A,2026-07-13T19:20:00.283776,1.00272832,.0004919,0.3897,84.7549,18.1628,273.7898,0,U,40892,999,3983,0,-.161E-5,0
EXPRESS-AM8,2015-048A,2026-07-13T20:14:30.452064,1.00289210,.0001323,0.0178,311.5744,42.7365,227.0284,0,U,40895,999,3961,0,-.114E-5,0
BEIDOU-3S IGSO-2S,2015-053A,2026-07-13T15:37:06.619584,1.00252865,.006623,49.1811,258.4661,193.0946,167.7294,0,U,40938,999,3962,0,-.87E-6,0
SKY MUSTER 1 (NBN1A),2015-054A,2026-07-13T20:58:27.044832,1.00269204,.0001706,0.0174,17.6941,105.3868,263.5233,0,U,40940,999,3952,0,0,0
ARSAT 2,2015-054B,2026-07-13T13:04:40.564416,1.00270532,.0001813,0.0397,286.8573,179.3979,300.3331,0,U,40941,999,3956,0,-.229E-5,0
MORELOS 3,2015-056A,2026-07-13T16:20:54.921408,1.00272939,.000036,3.2086,15.7441,139.4600,268.4932,0,U,40946,999,3955,0,-.49E-6,0
APSTAR-9,2015-059A,2026-07-13T20:58:56.997984,1.00272154,.0003064,0.0219,41.6048,146.7209,200.1675,0,U,40982,999,3938,0,-.271E-5,0
TURKSAT 4B,2015-060A,2026-07-13T20:32:46.653792,1.00271988,.0002357,0.0159,47.4889,72.5536,169.8381,0,U,40984,999,3936,0,.11E-5,0
ZHONGXING-2C,2015-063A,2026-07-13T20:47:58.051104,1.00272763,.000809,0.3403,88.6175,100.7100,157.8442,0,U,41021,999,3924,0,-.329E-5,0
GSAT-15,2015-065A,2026-07-13T20:44:45.506112,1.00268154,.0003597,0.0268,59.9885,33.2779,243.1714,0,U,41028,999,3906,0,0,0
BADR-7 (ARABSAT-6B),2015-065B,2026-07-13T18:42:53.036064,1.00274936,.0005171,0.0187,256.1387,307.5300,34.7191,0,U,41029,999,3903,0,0,0
LAOSAT 1,2015-067A,2026-07-13T19:12:31.002048,1.00267882,.0002153,0.0665,239.5469,182.5575,286.2001,0,U,41034,999,3912,0,-.348E-5,0
