ASTRA 2G                
1 40364U 14089A   26194.86294845  .00000144  00000+0  00000+0 0  9994
2 40364   0.0503  23.5210 0004503  50.0725 197.0165  1.00267560 42238
FENGYUN 2G              
1 40367U 14090A   26194.89404384 -.00000308  00000+0  00000+0 0  9996
2 40367   5.7041  72.4904 0004207 153.4534 126.9012  1.00260524 42268
MUOS-3                  
1 40374U 15002A   26194.84306134 -.00000137  00000+0  00000+0 0  9997
2 40374   4.5707  43.6233 0053437 177.3561 358.6900  1.00269800 41851
INMARSAT 5-F2           
1 40384U 15005A   26194.83528565 -.00000291  00000+0  00000+0 0  9995
2 40384   0.0169  25.1294 0000046 275.2205 237.0580  1.00275418 41269
ABS-3A                  
1 40424U 15010A   26194.84628008 -.00000032  00000+0  00000+0 0  9993
2 40424   0.0098  34.4699 0001610  45.9611 152.9696  1.00271149 41640
EUTELSAT 115 WEST B     
1 40425U 15010B   26194.68084454 -.00000029  00000+0  00000+0 0  9993
2 40425   0.0036 167.7754 0000420 252.9245   1.0490  1.00265888 41645
EXPRESS-AM7             
1 40505U 15012A   26194.86294845  .00000145  00000+0  00000+0 0  9999
2 40505   0.0034 113.8249 0002689   6.7800 161.7717  1.00269571 41272
BEIDOU-3S IGSO-1S       
1 40549U 15019A   26183.80025122 -.00000190  00000+0  00000+0 0  9997
2 40549  49.1798 295.2769 0076860 219.1125 144.2493  1.00680073 41232
THOR 7                  
1 40613U 15022A   26194.84600802 -.00000014  00000+0  00000+0 0  9998
2 40613   0.0163 104.1088 0002296  11.0174 120.4876  1.00271405 41082
TURKMENALEM52E/MONACOSAT
1 40617U 15023A   26194.85644220  .00000099  00000+0  00000+0 0  9998
2 40617   0.0278  81.9912 0002582  39.3384 170.7170  1.00270552 41116
DIRECTV 15              
1 40663U 15026A   26194.51503031 -.00000106  00000+0  00000+0 0  9999
2 40663   0.0179  71.5022 0000065 256.9146  45.5133  1.00272384 40720
SKY MEXICO-1            
1 40664U 15026B   26194.83051897 -.00000239  00000+0  00000+0 0  9990
2 40664   0.0178  27.4608 0002330 108.1267  16.2974  1.00270379 40729
METEOSAT-11 (MSG-4)     
1 40732U 15034A   26194.84800137  .00000054  00000+0  00000+0 0  9999
2 40732   3.2659  70.9419 0002212 353.7964 181.5085  1.00271440  7483
STAR ONE C4             
1 40733U 15034B   26194.54699395 -.00000269  00000+0  00000+0 0  9998
2 40733   0.0373 314.5773 0001182 139.4865 324.2696  1.00269962 40270
WGS F7 (USA 263)        
1 40746U 15036A   26194.80954552  .00000012  00000+0  00000+0 0  9997
2 40746   0.0120  31.3926 0000033 136.2275 230.5001  1.00270634 40134
INTELSAT 34 (IS-34)     
1 40874U 15039A   26194.83519897 -.00000291  00000+0  00000+0 0  9994
2 40874   0.0105 343.6304 0000557  10.2654 182.9958  1.00271912 39905
EUTELSAT 8 WEST B       
1 40875U 15039B   26194.84462134 -.00000071  00000+0  00000+0 0  9993
2 40875   0.0647 345.7180 0003818 121.4061 120.6547  1.00271744 39920
GSAT-6                  
1 40880U 15041A   26194.86250889 -.00000167  00000+0  00000+0 0  9992
2 40880   1.9859  82.2629 0003037  26.8349 215.6268  1.00273409 39860
INMARSAT 5-F3           
1 40882U 15042A   26194.81041220  .00000045  00000+0  00000+0 0  9991
2 40882   0.0180  34.1222 0000395 158.1271 210.7634  1.00270841 39838
MUOS-4                  
1 40887U 15044A   26194.87238208 -.00000100  00000+0  00000+0 0  9991
2 40887   4.3785  42.3841 0056515   3.3957 275.0032  1.00271145 39829
TJS-1                   
1 40892U 15046A   26194.80555884 -.00000161  00000+0  00000+0 0  9991
2 40892   0.3897  84.7549 0004919  18.1628 273.7898  1.00272832 39830
EXPRESS-AM8             
1 40895U 15048A   26194.84340801 -.00000114  00000+0  00000+0 0  9999
2 40895   0.0178 311.5744 0001323  42.7365 227.0284  1.00289210 39612
BEIDOU-3S IGSO-2S       
1 40938U 15053A   26194.65077106 -.00000087  00000+0  00000+0 0  9996
2 40938  49.1811 258.4661 0066230 193.0946 167.7294  1.00252865 39626
SKY MUSTER 1 (NBN1A)    
1 40940U 15054A   26194.87392413  .00000000  00000+0  00000+0 0  9999
2 40940   0.0174  17.6941 0001706 105.3868 263.5233  1.00269204 39521
ARSAT 2                 
1 40941U 15054B   26194.54491394 -.00000229  00000+0  00000+0 0  9996
2 40941   0.0397 286.8573 0001813 179.3979 300.3331  1.00270532 39562
MORELOS 3               
1 40946U 15056A   26194.68119122 -.00000049  00000+0  00000+0 0  9994
2 40946   3.2086  15.7441 0000360 139.4600 268.4932  1.00272939 39557
APSTAR-9                
1 40982U 15059A   26194.87427081 -.00000271  00000+0  00000+0 0  9991
2 40982   0.0219  41.6048 0003064 146.7209 200.1675  1.00272154 39388
TURKSAT 4B              
1 40984U 15060A   26194.85609553  .00000110  00000+0  00000+0 0  9990
2 40984   0.0159  47.4889 0002357  72.5536 169.8381  1.00271988 39360
ZHONGXING-2C            
1 41021U 15063A   26194.86664411 -.00000329  00000+0  00000+0 0  9994
2 41021   0.3403  88.6175 0008090 100.7100 157.8442  1.00272763 39248
GSAT-15                 
1 41028U 15065A   26194.86441558  .00000000  00000+0  00000+0 0  9993
2 41028   0.0268  59.9885 0003597  33.2779 243.1714  1.00268154 39069
BADR-7 (ARABSAT-6B)     
1 41029U 15065B   26194.77978051  .00000000  00000+0  00000+0 0  9997
2 41029   0.0187 256.1387 0005171 307.5300  34.7191  1.00274936 39030
LAOSAT 1                
1 41034U 15067A   26194.80035882 -.00000348  00000+0  00000+0 0  9991
2 41034   0.0665 239.5469 0002153 182.5575 286.2001  1.00267882 39121
